COSMOS 2588             
1 64095U 25109A   26068.81179522  .00009169  00000+0  32611-3 0  9998
2 64095  72.9704  73.5401 0005019 308.6780  51.3966 15.29122656 44425
STARLINK-34534          
1 64763U 25147J   26068.71492983  .00011263  00000+0  39184-3 0  9990
2 64763  53.1572 242.7764 0001273  54.4002 305.7117 15.30199229 38759
