[{"OBJECT_NAME":"COSMOS 2588","OBJECT_ID":"2025-109A","EPOCH":"2026-03-09T19:28:59.107008","MEAN_MOTION":15.29122656,"ECCENTRICITY":0.0005019,"INCLINATION":72.9704,"RA_OF_ASC_NODE":73.5401,"ARG_OF_PERICENTER":308.678,"MEAN_ANOMALY":51.3966,"EPHEMERIS_TYPE":0,"CLASSIFICATION_TYPE":"U","NORAD_CAT_ID":64095,"ELEMENT_SET_NO":999,"REV_AT_EPOCH":4442,"BSTAR":0.00032611,"MEAN_MOTION_DOT":9.169e-5,"MEAN_MOTION_DDOT":0},{"OBJECT_NAME":"STARLINK-34534","OBJECT_ID":"2025-147J","EPOCH":"2026-03-09T17:09:29.938176","MEAN_MOTION":15.30199229,"ECCENTRICITY":0.00012733,"INCLINATION":53.1572,"RA_OF_ASC_NODE":242.7764,"ARG_OF_PERICENTER":54.4002,"MEAN_ANOMALY":305.7117,"EPHEMERIS_TYPE":0,"CLASSIFICATION_TYPE":"U","NORAD_CAT_ID":64763,"ELEMENT_SET_NO":999,"REV_AT_EPOCH":3875,"BSTAR":0.00039184001,"MEAN_MOTION_DOT":0.00011263,"MEAN_MOTION_DDOT":0}]
